CCSDS_OMM_VERS = 2.0
CREATION_DATE  = 
ORIGINATOR     = 

OBJECT_NAME    = CYGNUS NG-23
OBJECT_ID      = 2025-208A
CENTER_NAME    = EARTH
REF_FRAME      = TEME
TIME_SYSTEM    = UTC
MEAN_ELEMENT_THEORY = SGP/SGP4

EPOCH          = 2025-12-31T05:49:14.584224
MEAN_MOTION    = 15.48966283
ECCENTRICITY   = .00074963
INCLINATION    = 51.6330
RA_OF_ASC_NODE = 50.8452
ARG_OF_PERICENTER = 322.9593
MEAN_ANOMALY   = 37.0877

EPHEMERIS_TYPE = 0
CLASSIFICATION_TYPE = U
NORAD_CAT_ID   = 65616
ELEMENT_SET_NO = 999
REV_AT_EPOCH   = 22
BSTAR          = .274611E-3
MEAN_MOTION_DOT = .147E-3
MEAN_MOTION_DDOT = 0

CCSDS_OMM_VERS = 2.0
CREATION_DATE  = 
ORIGINATOR     = 

OBJECT_NAME    = DRAGONFLY
OBJECT_ID      = 1998-067XH
CENTER_NAME    = EARTH
REF_FRAME      = TEME
TIME_SYSTEM    = UTC
MEAN_ELEMENT_THEORY = SGP/SGP4

EPOCH          = 2025-12-31T09:20:47.171040
MEAN_MOTION    = 15.79537567
ECCENTRICITY   = .0008755
INCLINATION    = 51.6248
RA_OF_ASC_NODE = 39.7890
ARG_OF_PERICENTER = 26.0213
MEAN_ANOMALY   = 334.1226

EPHEMERIS_TYPE = 0
CLASSIFICATION_TYPE = U
NORAD_CAT_ID   = 65729
ELEMENT_SET_NO = 999
REV_AT_EPOCH   = 1610
BSTAR          = .16557E-2
MEAN_MOTION_DOT = .319553E-2
MEAN_MOTION_DDOT = 0

CCSDS_OMM_VERS = 2.0
CREATION_DATE  = 
ORIGINATOR     = 

OBJECT_NAME    = 1998-067XK
OBJECT_ID      = 1998-067XK
CENTER_NAME    = EARTH
REF_FRAME      = TEME
TIME_SYSTEM    = UTC
MEAN_ELEMENT_THEORY = SGP/SGP4

EPOCH          = 2025-12-31T08:22:53.261184
MEAN_MOTION    = 15.69782489
ECCENTRICITY   = .0005258
INCLINATION    = 51.6292
RA_OF_ASC_NODE = 42.5594
ARG_OF_PERICENTER = 0.6841
MEAN_ANOMALY   = 359.4162

EPHEMERIS_TYPE = 0
CLASSIFICATION_TYPE = U
NORAD_CAT_ID   = 65731
ELEMENT_SET_NO = 999
REV_AT_EPOCH   = 1606
BSTAR          = .12006E-2
MEAN_MOTION_DOT = .148249E-2
MEAN_MOTION_DDOT = 0

CCSDS_OMM_VERS = 2.0
CREATION_DATE  = 
ORIGINATOR     = 

OBJECT_NAME    = RSP-03
OBJECT_ID      = 1998-067XL
CENTER_NAME    = EARTH
REF_FRAME      = TEME
TIME_SYSTEM    = UTC
MEAN_ELEMENT_THEORY = SGP/SGP4

EPOCH          = 2025-12-31T12:04:15.568608
MEAN_MOTION    = 15.74188922
ECCENTRICITY   = .0006366
INCLINATION    = 51.6266
RA_OF_ASC_NODE = 40.5662
ARG_OF_PERICENTER = 8.0216
MEAN_ANOMALY   = 352.0884

EPHEMERIS_TYPE = 0
CLASSIFICATION_TYPE = U
NORAD_CAT_ID   = 65732
ELEMENT_SET_NO = 999
REV_AT_EPOCH   = 1611
BSTAR          = .14157E-2
MEAN_MOTION_DOT = .212547E-2
MEAN_MOTION_DDOT = 0

CCSDS_OMM_VERS = 2.0
CREATION_DATE  = 
ORIGINATOR     = 

OBJECT_NAME    = GHS-01
OBJECT_ID      = 1998-067XM
CENTER_NAME    = EARTH
REF_FRAME      = TEME
TIME_SYSTEM    = UTC
MEAN_ELEMENT_THEORY = SGP/SGP4

EPOCH          = 2025-12-30T08:21:52.063200
MEAN_MOTION    = 15.84202469
ECCENTRICITY   = .0009807
INCLINATION    = 51.6270
RA_OF_ASC_NODE = 44.0965
ARG_OF_PERICENTER = 24.2416
MEAN_ANOMALY   = 335.9046

EPHEMERIS_TYPE = 0
CLASSIFICATION_TYPE = U
NORAD_CAT_ID   = 65733
ELEMENT_SET_NO = 999
REV_AT_EPOCH   = 1596
BSTAR          = .18873592E-2
MEAN_MOTION_DOT = .460338E-2
MEAN_MOTION_DDOT = 0

CCSDS_OMM_VERS = 2.0
CREATION_DATE  = 
ORIGINATOR     = 

OBJECT_NAME    = YOTSUBA-KULOVER
OBJECT_ID      = 1998-067XN
CENTER_NAME    = EARTH
REF_FRAME      = TEME
TIME_SYSTEM    = UTC
MEAN_ELEMENT_THEORY = SGP/SGP4

EPOCH          = 2025-12-31T06:45:16.992288
MEAN_MOTION    = 15.62206285
ECCENTRICITY   = .00032244
INCLINATION    = 51.6298
RA_OF_ASC_NODE = 46.6101
ARG_OF_PERICENTER = 30.2152
MEAN_ANOMALY   = 329.9027

EPHEMERIS_TYPE = 0
CLASSIFICATION_TYPE = U
NORAD_CAT_ID   = 65941
ELEMENT_SET_NO = 999
REV_AT_EPOCH   = 1275
BSTAR          = .10776476E-2
MEAN_MOTION_DOT = .97371E-3
MEAN_MOTION_DDOT = 0

CCSDS_OMM_VERS = 2.0
CREATION_DATE  = 
ORIGINATOR     = 

OBJECT_NAME    = BOTAN
OBJECT_ID      = 1998-067XP
CENTER_NAME    = EARTH
REF_FRAME      = TEME
TIME_SYSTEM    = UTC
MEAN_ELEMENT_THEORY = SGP/SGP4

EPOCH          = 2025-12-31T07:14:14.624160
MEAN_MOTION    = 15.67293669
ECCENTRICITY   = .00041899
INCLINATION    = 51.6280
RA_OF_ASC_NODE = 45.2399
ARG_OF_PERICENTER = 18.6409
MEAN_ANOMALY   = 341.4740

EPHEMERIS_TYPE = 0
CLASSIFICATION_TYPE = U
NORAD_CAT_ID   = 65942
ELEMENT_SET_NO = 999
REV_AT_EPOCH   = 1277
BSTAR          = .14639361E-2
MEAN_MOTION_DOT = .163562E-2
MEAN_MOTION_DDOT = 0

CCSDS_OMM_VERS = 2.0
CREATION_DATE  = 
ORIGINATOR     = 

OBJECT_NAME    = E-KAGAKU-1
OBJECT_ID      = 1998-067XQ
CENTER_NAME    = EARTH
REF_FRAME      = TEME
TIME_SYSTEM    = UTC
MEAN_ELEMENT_THEORY = SGP/SGP4

EPOCH          = 2025-12-31T02:08:55.896576
MEAN_MOTION    = 15.62184482
ECCENTRICITY   = .00018553
INCLINATION    = 51.6301
RA_OF_ASC_NODE = 47.5837
ARG_OF_PERICENTER = 17.3955
MEAN_ANOMALY   = 342.7102

EPHEMERIS_TYPE = 0
CLASSIFICATION_TYPE = U
NORAD_CAT_ID   = 65943
ELEMENT_SET_NO = 999
REV_AT_EPOCH   = 1272
BSTAR          = .11676733E-2
MEAN_MOTION_DOT = .105555E-2
MEAN_MOTION_DDOT = 0

CCSDS_OMM_VERS = 2.0
CREATION_DATE  = 
ORIGINATOR     = 

OBJECT_NAME    = HRC MONOBLOCK CAMERA
OBJECT_ID      = 1998-067XR
CENTER_NAME    = EARTH
REF_FRAME      = TEME
TIME_SYSTEM    = UTC
MEAN_ELEMENT_THEORY = SGP/SGP4

EPOCH          = 2025-12-31T10:03:51.939360
MEAN_MOTION    = 15.55532276
ECCENTRICITY   = .0001593
INCLINATION    = 51.6311
RA_OF_ASC_NODE = 48.2779
ARG_OF_PERICENTER = 284.7736
MEAN_ANOMALY   = 75.3079

EPHEMERIS_TYPE = 0
CLASSIFICATION_TYPE = U
NORAD_CAT_ID   = 66052
ELEMENT_SET_NO = 999
REV_AT_EPOCH   = 1174
BSTAR          = .67235E-3
MEAN_MOTION_DOT = .46648E-3
MEAN_MOTION_DDOT = 0

CCSDS_OMM_VERS = 2.0
CREATION_DATE  = 
ORIGINATOR     = 

OBJECT_NAME    = HTV-X1
OBJECT_ID      = 2025-241A
CENTER_NAME    = EARTH
REF_FRAME      = TEME
TIME_SYSTEM    = UTC
MEAN_ELEMENT_THEORY = SGP/SGP4

EPOCH          = 2025-12-31T05:49:14.584224
MEAN_MOTION    = 15.48966283
ECCENTRICITY   = .00074963
INCLINATION    = 51.6330
RA_OF_ASC_NODE = 50.8452
ARG_OF_PERICENTER = 322.9593
MEAN_ANOMALY   = 37.0877

EPHEMERIS_TYPE = 0
CLASSIFICATION_TYPE = U
NORAD_CAT_ID   = 66174
ELEMENT_SET_NO = 999
REV_AT_EPOCH   = 51
BSTAR          = .274611E-3
MEAN_MOTION_DOT = .147E-3
MEAN_MOTION_DDOT = 0

CCSDS_OMM_VERS = 2.0
CREATION_DATE  = 
ORIGINATOR     = 

OBJECT_NAME    = SZ-21 MODULE
OBJECT_ID      = 2025-246C
CENTER_NAME    = EARTH
REF_FRAME      = TEME
TIME_SYSTEM    = UTC
MEAN_ELEMENT_THEORY = SGP/SGP4

EPOCH          = 2025-12-31T01:40:01.124544
MEAN_MOTION    = 15.63556813
ECCENTRICITY   = .0003033
INCLINATION    = 41.4763
RA_OF_ASC_NODE = 264.1497
ARG_OF_PERICENTER = 3.4177
MEAN_ANOMALY   = 356.6683

EPHEMERIS_TYPE = 0
CLASSIFICATION_TYPE = U
NORAD_CAT_ID   = 66515
ELEMENT_SET_NO = 999
REV_AT_EPOCH   = 731
BSTAR          = .42604371E-3
MEAN_MOTION_DOT = .40549E-3
MEAN_MOTION_DDOT = 0

CCSDS_OMM_VERS = 2.0
CREATION_DATE  = 
ORIGINATOR     = 

OBJECT_NAME    = SHENZHOU-22
OBJECT_ID      = 2025-272A
CENTER_NAME    = EARTH
REF_FRAME      = TEME
TIME_SYSTEM    = UTC
MEAN_ELEMENT_THEORY = SGP/SGP4

EPOCH          = 2025-12-31T02:14:33.346464
MEAN_MOTION    = 15.59942629
ECCENTRICITY   = .00097473
INCLINATION    = 41.4668
RA_OF_ASC_NODE = 265.2206
ARG_OF_PERICENTER = 186.8831
MEAN_ANOMALY   = 173.1875

EPHEMERIS_TYPE = 0
CLASSIFICATION_TYPE = U
NORAD_CAT_ID   = 66645
ELEMENT_SET_NO = 999
REV_AT_EPOCH   = 26598
BSTAR          = .32907806E-3
MEAN_MOTION_DOT = .27123E-3
MEAN_MOTION_DDOT = 0

